[{"OBJECT_NAME":"XINGYUN-2 01","OBJECT_ID":"2020-028A","EPOCH":"2026-03-09T23:27:57.512736","MEAN_MOTION":15.11323975,"ECCENTRICITY":0.00090563,"INCLINATION":97.4853,"RA_OF_ASC_NODE":63.3977,"ARG_OF_PERICENTER":174.572,"MEAN_ANOMALY":185.561,"EPHEMERIS_TYPE":0,"CLASSIFICATION_TYPE":"U","NORAD_CAT_ID":45602,"ELEMENT_SET_NO":999,"REV_AT_EPOCH":31985,"BSTAR":0.000253969,"MEAN_MOTION_DOT":4.22e-5,"MEAN_MOTION_DDOT":0},{"OBJECT_NAME":"STARLINK-4573","OBJECT_ID":"2022-104AM","EPOCH":"2026-03-09T22:25:06.379104","MEAN_MOTION":15.08817989,"ECCENTRICITY":0.00013798,"INCLINATION":53.2163,"RA_OF_ASC_NODE":232.8995,"ARG_OF_PERICENTER":86.4749,"MEAN_ANOMALY":273.6401,"EPHEMERIS_TYPE":0,"CLASSIFICATION_TYPE":"U","NORAD_CAT_ID":53623,"ELEMENT_SET_NO":999,"REV_AT_EPOCH":19578,"BSTAR":0.00034384772,"MEAN_MOTION_DOT":5.185e-5,"MEAN_MOTION_DDOT":0}]
